{
    "links": {
        "self": "http://www.neowsapp.com/rest/v1/neo/3397574?api_key=iIulBulltgU6a56xZRHN4H3l9WmuAYTsLGpBGhQ2"
    },
    "id": "3397574",
    "neo_reference_id": "3397574",
    "name": "(2007 XA10)",
    "designation": "2007 XA10",
    "nasa_jpl_url": "http://ssd.jpl.nasa.gov/sbdb.cgi?sstr=3397574",
    "absolute_magnitude_h": 22.9,
    "estimated_diameter": {
        "kilometers": {
            "estimated_diameter_min": 0.0699125232,
            "estimated_diameter_max": 0.1563291544
        },
        "meters": {
            "estimated_diameter_min": 69.9125232246,
            "estimated_diameter_max": 156.3291544087
        },
        "miles": {
            "estimated_diameter_min": 0.0434416145,
            "estimated_diameter_max": 0.097138403
        },
        "feet": {
            "estimated_diameter_min": 229.3718026961,
            "estimated_diameter_max": 512.8909429502
        }
    },
    "is_potentially_hazardous_asteroid": false,
    "close_approach_data": [
        {
            "close_approach_date": "2007-11-28",
            "close_approach_date_full": "2007-Nov-28 02:24",
            "epoch_date_close_approach": 1196216640000,
            "relative_velocity": {
                "kilometers_per_second": "11.5506634157",
                "kilometers_per_hour": "41582.3882966381",
                "miles_per_hour": "25837.6789946527"
            },
            "miss_distance": {
                "astronomical": "0.1332838825",
                "lunar": "51.8474302925",
                "kilometers": "19938984.927330275",
                "miles": "12389510.724596795"
            },
            "orbiting_body": "Earth"
        }
    ],
    "orbital_data": {
        "orbit_id": "8",
        "orbit_determination_date": "2017-04-06 09:04:58",
        "first_observation_date": "2007-12-04",
        "last_observation_date": "2007-12-12",
        "data_arc_in_days": 8,
        "observations_used": 20,
        "orbit_uncertainty": "9",
        "minimum_orbit_intersection": ".119642",
        "jupiter_tisserand_invariant": "4.212",
        "epoch_osculation": "2454441.5",
        "eccentricity": ".3551146009407366",
        "semi_major_axis": "1.608834305161898",
        "inclination": "19.9028321113949",
        "ascending_node_longitude": "75.54155834716899",
        "orbital_period": "745.3588357059118",
        "perihelion_distance": "1.037513752904563",
        "perihelion_argument": "314.9028196430931",
        "aphelion_distance": "2.180154857419232",
        "perihelion_time": "2454396.552474183054",
        "mean_anomaly": "21.70915338888525",
        "mean_motion": ".4829888407495062",
        "equinox": "J2000",
        "orbit_class": {
            "orbit_class_type": "AMO",
            "orbit_class_description": "Near-Earth asteroid orbits similar to that of 1221 Amor",
            "orbit_class_range": "1.017 AU < q (perihelion) < 1.3 AU"
        }
    },
    "is_sentry_object": false
}